#dP2026  4 30  9 45  0.00000000       2 d+D   IGc20 FIT AIUB
## 2416 380700.00000000   900.00000000 61160 0.4062500000000
+    1   G02  0  0  0  0  0  0  0  0  0  0  0  0  0  0  0  0
++         4  0  0  0  0  0  0  0  0  0  0  0  0  0  0  0  0
%c M  cc GPS ccc cccc cccc cccc cccc ccccc ccccc ccccc ccccc
%c cc cc ccc ccc cccc cccc cccc cccc ccccc ccccc ccccc ccccc
%f  1.2500000  1.025000000  0.00000000000  0.000000000000000
%f  0.0000000  0.000000000  0.00000000000  0.000000000000000
%i    0    0    0    0      0      0      0      0         0
%i    0    0    0    0      0      0      0      0         0
/* Mini G02 crop from CODE trim
*  2026  4 30  9 45  0.00000000
PG02  16276.254421 -19088.363996  -7396.747747     89.172419
*  2026  4 30 10  0  0.00000000
PG02  17033.600597 -19338.346926  -4617.765393     89.179403
